[{"OBJECT_NAME":"AMAZONIA 1","OBJECT_ID":"2021-015A","EPOCH":"2026-03-09T17:05:01.705920","MEAN_MOTION":14.40836291,"ECCENTRICITY":0.00039353,"INCLINATION":98.4264,"RA_OF_ASC_NODE":142.7385,"ARG_OF_PERICENTER":123.8493,"MEAN_ANOMALY":236.3071,"EPHEMERIS_TYPE":0,"CLASSIFICATION_TYPE":"U","NORAD_CAT_ID":47699,"ELEMENT_SET_NO":999,"REV_AT_EPOCH":26432,"BSTAR":0.00010973552,"MEAN_MOTION_DOT":3.08e-6,"MEAN_MOTION_DDOT":0},{"OBJECT_NAME":"OPS 6182 (DMSP 5D-1 F3)","OBJECT_ID":"1978-042A","EPOCH":"2026-03-09T13:24:50.704416","MEAN_MOTION":14.37988503,"ECCENTRICITY":0.00082468,"INCLINATION":98.4534,"RA_OF_ASC_NODE":265.0174,"ARG_OF_PERICENTER":287.6358,"MEAN_ANOMALY":72.3928,"EPHEMERIS_TYPE":0,"CLASSIFICATION_TYPE":"U","NORAD_CAT_ID":10820,"ELEMENT_SET_NO":999,"REV_AT_EPOCH":49869,"BSTAR":0.00021337157,"MEAN_MOTION_DOT":6.02e-6,"MEAN_MOTION_DDOT":0}]
